[{"OBJECT_NAME":"SAUDISAT 1C (SO-50)","OBJECT_ID":"2002-058C","EPOCH":"2026-03-09T14:49:05.437056","MEAN_MOTION":14.82783142,"ECCENTRICITY":0.0075248,"INCLINATION":64.5524,"RA_OF_ASC_NODE":76.9957,"ARG_OF_PERICENTER":280.7497,"MEAN_ANOMALY":78.5144,"EPHEMERIS_TYPE":0,"CLASSIFICATION_TYPE":"U","NORAD_CAT_ID":27607,"ELEMENT_SET_NO":999,"REV_AT_EPOCH":24969,"BSTAR":0.00027919,"MEAN_MOTION_DOT":2.222e-5,"MEAN_MOTION_DDOT":0},{"OBJECT_NAME":"STARLINK-4434","OBJECT_ID":"2022-099AN","EPOCH":"2026-03-09T20:53:08.550240","MEAN_MOTION":15.01260791,"ECCENTRICITY":0.00032518,"INCLINATION":97.6017,"RA_OF_ASC_NODE":190.4041,"ARG_OF_PERICENTER":88.8351,"MEAN_ANOMALY":271.3246,"EPHEMERIS_TYPE":0,"CLASSIFICATION_TYPE":"U","NORAD_CAT_ID":53501,"ELEMENT_SET_NO":999,"REV_AT_EPOCH":19601,"BSTAR":4.2660868e-5,"MEAN_MOTION_DOT":4.9e-6,"MEAN_MOTION_DDOT":0}]
